{
  "norad_id": 63194,
  "name": "STARLINK-11636 [DTC]",
  "history": [
    {
      "epoch": "2026-03-28T14:25:47.618112Z",
      "apogee_km": 357.9869900229005,
      "perigee_km": 353.7539929137629,
      "latitude_deg": -2.6352055300587132e-05,
      "longitude_deg": 163.59241259932477,
      "height_km": 357.25042002962266,
      "semi_major_axis_km": 6734.007491468331,
      "eccentricity": 0.0003143,
      "inclination_deg": 42.9951,
      "raan_deg": 206.0602,
      "arg_perigee_deg": 139.6063,
      "mean_anomaly_deg": 220.5038,
      "mean_motion_rev_day": 15.71058545
    }
  ]
}