{"fetched_at":"2026-03-29T02:12:04Z","count":15717,"tles":[{"name":"STARLINK-11636 [DTC]","line1":"1 63194U 25048M   26087.60124559  .00234752  00000+0  17653-2 0  9993","line2":"2 63194  42.9951 206.0602 0003143 139.6063 220.5038 15.71058545 61491","category":"Starlink"}]}